[{"OBJECT_NAME":"ION SCV-004","OBJECT_ID":"2022-002K","EPOCH":"2026-03-09T16:32:03.244416","MEAN_MOTION":15.29369331,"ECCENTRICITY":0.00072157,"INCLINATION":97.2961,"RA_OF_ASC_NODE":128.2294,"ARG_OF_PERICENTER":1.6783,"MEAN_ANOMALY":358.448,"EPHEMERIS_TYPE":0,"CLASSIFICATION_TYPE":"U","NORAD_CAT_ID":50993,"ELEMENT_SET_NO":999,"REV_AT_EPOCH":23008,"BSTAR":0.00023198467,"MEAN_MOTION_DOT":6.538e-5,"MEAN_MOTION_DDOT":0},{"OBJECT_NAME":"STARLINK-30345","OBJECT_ID":"2023-129D","EPOCH":"2026-03-09T19:35:58.089984","MEAN_MOTION":15.26736368,"ECCENTRICITY":7.154e-5,"INCLINATION":42.997,"RA_OF_ASC_NODE":117.0531,"ARG_OF_PERICENTER":35.7791,"MEAN_ANOMALY":324.3109,"EPHEMERIS_TYPE":0,"CLASSIFICATION_TYPE":"U","NORAD_CAT_ID":57701,"ELEMENT_SET_NO":999,"REV_AT_EPOCH":14056,"BSTAR":6.1280296e-5,"MEAN_MOTION_DOT":1.384e-5,"MEAN_MOTION_DDOT":0}]
